start=new Date('2021-10-08T00:00:00.000Z').valueOf();
sats=[{"APOAPSIS":"349.291","OBJECT_ID":"2021-024AF","OBJECT_NAME":"STARLINK-2277","ECCENTRICITY":"0.00080520","MEAN_ANOMALY":"163.1098","EPOCH":"2021-10-07T22:00:00.999936","MEAN_MOTION_DDOT":"0.0000000000000","TIME_SYSTEM":"UTC","REV_AT_EPOCH":"368","MEAN_ELEMENT_THEORY":"SGP4","LAUNCH_DATE":"2021-03-24","CLASSIFICATION_TYPE":"U","FILE":"3150302","REF_FRAME":"TEME","MEAN_MOTION_DOT":"0.00097133","DECAY_DATE":null,"ARG_OF_PERICENTER":"323.9086","TLE_LINE1":"1 48006U 21024AF  21280.91667824  .00097133  00000-0  62867-3 0  9998","SEMIMAJOR_AXIS":"6722.013","INCLINATION":"53.0425","ELEMENT_SET_NO":"999","PERIOD":"91.413","PERIAPSIS":"338.465","CENTER_NAME":"EARTH","TLE_LINE2":"2 48006  53.0425 302.2505 0008052 323.9086 163.1098 15.75265437  3682","MEAN_MOTION":"15.75265437","COUNTRY_CODE":"US","EPHEMERIS_TYPE":"0","GP_ID":"186512629","BSTAR":"0.00062867000000","RCS_SIZE":"LARGE","RA_OF_ASC_NODE":"302.2505","OBJECT_TYPE":"PAYLOAD","NORAD_CAT_ID":"48006","SITE":"AFETR"},{"MEAN_MOTION_DOT":"0.00082312","DECAY_DATE":null,"FILE":"3150302","REF_FRAME":"TEME","TLE_LINE1":"1 48007U 21024AG  21280.91667824  .00082312  00000-0  58584-3 0  9993","ARG_OF_PERICENTER":"21.3103","TIME_SYSTEM":"UTC","REV_AT_EPOCH":"368","EPOCH":"2021-10-07T22:00:00.999936","MEAN_MOTION_DDOT":"0.0000000000000","CLASSIFICATION_TYPE":"U","LAUNCH_DATE":"2021-03-24","MEAN_ELEMENT_THEORY":"SGP4","OBJECT_NAME":"STARLINK-2259","MEAN_ANOMALY":"44.3082","ECCENTRICITY":"0.00028070","APOAPSIS":"351.746","OBJECT_ID":"2021-024AG","NORAD_CAT_ID":"48007","OBJECT_TYPE":"PAYLOAD","RA_OF_ASC_NODE":"302.3771","RCS_SIZE":"LARGE","SITE":"AFETR","EPHEMERIS_TYPE":"0","GP_ID":"186511402","COUNTRY_CODE":"US","BSTAR":"0.00058584000000","TLE_LINE2":"2 48007  53.0436 302.3771 0002807  21.3103  44.3082 15.73165866  3688","CENTER_NAME":"EARTH","MEAN_MOTION":"15.73165866","INCLINATION":"53.0436","SEMIMAJOR_AXIS":"6727.992","PERIAPSIS":"347.969","PERIOD":"91.535","ELEMENT_SET_NO":"999"},{"MEAN_MOTION":"15.73240861","TLE_LINE2":"2 48008  53.0432 302.6837 0004462 337.8085 295.0264 15.73240861  3679","CENTER_NAME":"EARTH","PERIAPSIS":"346.642","PERIOD":"91.531","ELEMENT_SET_NO":"999","INCLINATION":"53.0432","SEMIMAJOR_AXIS":"6727.779","SITE":"AFETR","NORAD_CAT_ID":"48008","OBJECT_TYPE":"PAYLOAD","RA_OF_ASC_NODE":"302.6837","RCS_SIZE":"LARGE","BSTAR":"-0.00044671000000","GP_ID":"186511145","EPHEMERIS_TYPE":"0","COUNTRY_CODE":"US","MEAN_ANOMALY":"295.0264","ECCENTRICITY":"0.00044620","OBJECT_NAME":"STARLINK-2271","OBJECT_ID":"2021-024AH","APOAPSIS":"352.646","TLE_LINE1":"1 48008U 21024AH  21280.91667824 -.00063012  00000-0 -44671-3 0  9994","ARG_OF_PERICENTER":"337.8085","MEAN_MOTION_DOT":"-0.00063012","DECAY_DATE":null,"REF_FRAME":"TEME","FILE":"3150302","LAUNCH_DATE":"2021-03-24","CLASSIFICATION_TYPE":"U","MEAN_ELEMENT_THEORY":"SGP4","TIME_SYSTEM":"UTC","REV_AT_EPOCH":"367","MEAN_MOTION_DDOT":"0.0000000000000","EPOCH":"2021-10-07T22:00:00.999936"},{"FILE":"3150302","REF_FRAME":"TEME","MEAN_MOTION_DOT":"-0.00000241","DECAY_DATE":null,"TLE_LINE1":"1 48009U 21024AJ  21280.65606684 -.00000241  00000-0  27013-5 0  9990","ARG_OF_PERICENTER":"95.2563","MEAN_MOTION_DDOT":"0.0000000000000","EPOCH":"2021-10-07T15:44:44.174976","REV_AT_EPOCH":"3151","TIME_SYSTEM":"UTC","MEAN_ELEMENT_THEORY":"SGP4","LAUNCH_DATE":"2021-03-24","CLASSIFICATION_TYPE":"U","OBJECT_NAME":"STARLINK-2153","ECCENTRICITY":"0.00010220","MEAN_ANOMALY":"264.8542","APOAPSIS":"547.928","OBJECT_ID":"2021-024AJ","RA_OF_ASC_NODE":"2.2832","RCS_SIZE":"LARGE","OBJECT_TYPE":"PAYLOAD","NORAD_CAT_ID":"48009","SITE":"AFETR","COUNTRY_CODE":"US","GP_ID":"186512403","EPHEMERIS_TYPE":"0","BSTAR":"0.00000270130000","CENTER_NAME":"EARTH","TLE_LINE2":"2 48009  53.0561   2.2832 0001022  95.2563 264.8542 15.06397855 31515","MEAN_MOTION":"15.06397855","SEMIMAJOR_AXIS":"6925.355","INCLINATION":"53.0561","ELEMENT_SET_NO":"999","PERIAPSIS":"546.512","PERIOD":"95.592"},{"COUNTRY_CODE":"US","GP_ID":"186512129","EPHEMERIS_TYPE":"0","BSTAR":"0.00004065900000","RA_OF_ASC_NODE":"22.2758","RCS_SIZE":"LARGE","OBJECT_TYPE":"PAYLOAD","NORAD_CAT_ID":"48010","SITE":"AFETR","SEMIMAJOR_AXIS":"6925.352","INCLINATION":"53.0534","ELEMENT_SET_NO":"999","PERIAPSIS":"546.302","PERIOD":"95.592","CENTER_NAME":"EARTH","TLE_LINE2":"2 48010  53.0534  22.2758 0001321  87.1855 272.9285 15.06398965 31238","MEAN_MOTION":"15.06398965","MEAN_MOTION_DDOT":"0.0000000000000","EPOCH":"2021-10-07T15:59:21.887520","TIME_SYSTEM":"UTC","REV_AT_EPOCH":"3123","MEAN_ELEMENT_THEORY":"SGP4","LAUNCH_DATE":"2021-03-24","CLASSIFICATION_TYPE":"U","FILE":"3150302","REF_FRAME":"TEME","MEAN_MOTION_DOT":"0.00000324","DECAY_DATE":null,"TLE_LINE1":"1 48010U 21024AK  21280.66622555  .00000324  00000-0  40659-4 0  9999","ARG_OF_PERICENTER":"87.1855","APOAPSIS":"548.132","OBJECT_ID":"2021-024AK","OBJECT_NAME":"STARLINK-2226","ECCENTRICITY":"0.00013210","MEAN_ANOMALY":"272.9285"},{"NORAD_CAT_ID":"48011","OBJECT_TYPE":"PAYLOAD","RCS_SIZE":"LARGE","RA_OF_ASC_NODE":"2.4292","SITE":"AFETR","EPHEMERIS_TYPE":"0","GP_ID":"186510902","COUNTRY_CODE":"US","BSTAR":"0.00016331000000","TLE_LINE2":"2 48011  53.0560   2.4292 0001054 110.4164 249.6938 15.06404870 31562","CENTER_NAME":"EARTH","MEAN_MOTION":"15.06404870","INCLINATION":"53.0560","SEMIMAJOR_AXIS":"6925.334","PERIOD":"95.592","PERIAPSIS":"546.469","ELEMENT_SET_NO":"999","MEAN_MOTION_DOT":"0.00002152","DECAY_DATE":null,"FILE":"3150302","REF_FRAME":"TEME","ARG_OF_PERICENTER":"110.4164","TLE_LINE1":"1 48011U 21024AL  21280.62288863  .00002152  00000-0  16331-3 0  9996","REV_AT_EPOCH":"3156","TIME_SYSTEM":"UTC","EPOCH":"2021-10-07T14:56:57.577632","MEAN_MOTION_DDOT":"0.0000000000000","CLASSIFICATION_TYPE":"U","LAUNCH_DATE":"2021-03-24","MEAN_ELEMENT_THEORY":"SGP4","OBJECT_NAME":"STARLINK-2272","MEAN_ANOMALY":"249.6938","ECCENTRICITY":"0.00010540","APOAPSIS":"547.929","OBJECT_ID":"2021-024AL"},{"LAUNCH_DATE":"2021-03-24","CLASSIFICATION_TYPE":"U","MEAN_ELEMENT_THEORY":"SGP4","REV_AT_EPOCH":"3190","TIME_SYSTEM":"UTC","MEAN_MOTION_DDOT":"0.0000000000000","EPOCH":"2021-10-07T13:28:45.784128","ARG_OF_PERICENTER":"97.7934","TLE_LINE1":"1 48012U 21024AM  21280.56164102  .00002333  00000-0  17546-3 0  9999","DECAY_DATE":null,"MEAN_MOTION_DOT":"0.00002333","FILE":"3150302","REF_FRAME":"TEME","OBJECT_ID":"2021-024AM","APOAPSIS":"547.962","MEAN_ANOMALY":"262.3176","ECCENTRICITY":"0.00010710","OBJECT_NAME":"STARLINK-2216","BSTAR":"0.00017546000000","GP_ID":"186511646","EPHEMERIS_TYPE":"0","COUNTRY_CODE":"US","SITE":"AFETR","OBJECT_TYPE":"PAYLOAD","NORAD_CAT_ID":"48012","RCS_SIZE":"LARGE","RA_OF_ASC_NODE":"337.7048","PERIOD":"95.592","PERIAPSIS":"546.478","ELEMENT_SET_NO":"999","INCLINATION":"53.0550","SEMIMAJOR_AXIS":"6925.355","MEAN_MOTION":"15.06397899","TLE_LINE2":"2 48012  53.0550 337.7048 0001071  97.7934 262.3176 15.06397899 31902","CENTER_NAME":"EARTH"},{"BSTAR":"0.00018117000000","GP_ID":"186511903","EPHEMERIS_TYPE":"0","COUNTRY_CODE":"US","SITE":"AFETR","OBJECT_TYPE":"PAYLOAD","NORAD_CAT_ID":"48013","RA_OF_ASC_NODE":"347.0457","RCS_SIZE":"LARGE","PERIAPSIS":"559.039","PERIOD":"95.851","ELEMENT_SET_NO":"999","INCLINATION":"53.0556","SEMIMAJOR_AXIS":"6937.831","MEAN_MOTION":"15.02336290","TLE_LINE2":"2 48013  53.0556 347.0457 0000948 111.0647 249.0441 15.02336290 31721","CENTER_NAME":"EARTH","CLASSIFICATION_TYPE":"U","LAUNCH_DATE":"2021-03-24","MEAN_ELEMENT_THEORY":"SGP4","REV_AT_EPOCH":"3172","TIME_SYSTEM":"UTC","MEAN_MOTION_DDOT":"0.0000000000000","EPOCH":"2021-10-07T14:10:00.783840","TLE_LINE1":"1 48013U 21024AN  21280.59028685  .00002151  00000-0  18117-3 0  9991","ARG_OF_PERICENTER":"111.0647","DECAY_DATE":null,"MEAN_MOTION_DOT":"0.00002151","FILE":"3150302","REF_FRAME":"TEME","OBJECT_ID":"2021-024AN","APOAPSIS":"560.354","MEAN_ANOMALY":"249.0441","ECCENTRICITY":"0.00009480","OBJECT_NAME":"STARLINK-2243"},{"ARG_OF_PERICENTER":"35.1666","TLE_LINE1":"1 48014U 21024AP  21280.91667824 -.00918820  00000-0 -55658-1 0  9992","REF_FRAME":"TEME","FILE":"3150302","MEAN_MOTION_DOT":"-0.00918820","DECAY_DATE":null,"MEAN_ELEMENT_THEORY":"SGP4","CLASSIFICATION_TYPE":"U","LAUNCH_DATE":"2021-03-24","EPOCH":"2021-10-07T22:00:00.999936","MEAN_MOTION_DDOT":"0.0000000000000","REV_AT_EPOCH":"363","TIME_SYSTEM":"UTC","ECCENTRICITY":"0.00019990","MEAN_ANOMALY":"93.2612","OBJECT_NAME":"STARLINK-2283","OBJECT_ID":"2021-024AP","APOAPSIS":"528.591","SITE":"AFETR","RCS_SIZE":"LARGE","RA_OF_ASC_NODE":"309.5589","NORAD_CAT_ID":"48014","OBJECT_TYPE":"PAYLOAD","BSTAR":"-0.05565800000000","COUNTRY_CODE":"US","EPHEMERIS_TYPE":"0","GP_ID":"186512630","MEAN_MOTION":"15.12950052","CENTER_NAME":"EARTH","TLE_LINE2":"2 48014  53.0527 309.5589 0001999  35.1666  93.2612 15.12950052  3630","ELEMENT_SET_NO":"999","PERIOD":"95.178","PERIAPSIS":"525.831","SEMIMAJOR_AXIS":"6905.346","INCLINATION":"53.0527"},{"CENTER_NAME":"EARTH","TLE_LINE2":"2 48015  53.0435 302.3710 0001809  33.3208  32.9600 15.73153871  3681","MEAN_MOTION":"15.73153871","SEMIMAJOR_AXIS":"6728.027","INCLINATION":"53.0435","ELEMENT_SET_NO":"999","PERIAPSIS":"348.675","PERIOD":"91.536","RA_OF_ASC_NODE":"302.3710","RCS_SIZE":"LARGE","NORAD_CAT_ID":"48015","OBJECT_TYPE":"PAYLOAD","SITE":"AFETR","COUNTRY_CODE":"US","EPHEMERIS_TYPE":"0","GP_ID":"186511403","BSTAR":"0.00017614000000","OBJECT_NAME":"STARLINK-2281","ECCENTRICITY":"0.00018090","MEAN_ANOMALY":"32.9600","APOAPSIS":"351.109","OBJECT_ID":"2021-024AQ","REF_FRAME":"TEME","FILE":"3150302","MEAN_MOTION_DOT":"0.00024127","DECAY_DATE":null,"TLE_LINE1":"1 48015U 21024AQ  21280.91667824  .00024127  00000-0  17614-3 0  9991","ARG_OF_PERICENTER":"33.3208","MEAN_MOTION_DDOT":"0.0000000000000","EPOCH":"2021-10-07T22:00:00.999936","TIME_SYSTEM":"UTC","REV_AT_EPOCH":"368","MEAN_ELEMENT_THEORY":"SGP4","LAUNCH_DATE":"2021-03-24","CLASSIFICATION_TYPE":"U"}];
